{"type": "FeatureCollection", "features": [ {"type": "Feature", "properties": {"norad_id": 34327, "name": "COSMOS 2251 DEB", "group": "cosmos-2251-debris", "lat": 21.77892901223019, "lon": -0.9286250679418793, "alt_km": 620.9420574748356, "timestamp": "2025-12-05T20:43:02.447620+00:00", "meta": {"OBJECT_NAME": "COSMOS 2251 DEB", "OBJECT_ID": "1993-036NZ", "EPOCH": "2025-12-05T07:54:13.180608", "MEAN_MOTION": 14.88933837, "ECCENTRICITY": 0.00324286, "INCLINATION": 73.9931, "RA_OF_ASC_NODE": 186.7264, "ARG_OF_PERICENTER": 4.6651, "MEAN_ANOMALY": 171.733, "EPHEMERIS_TYPE": 0, "CLASSIFICATION_TYPE": "U", "NORAD_CAT_ID": 34327, "ELEMENT_SET_NO": 999, "REV_AT_EPOCH": 89397, "BSTAR": 0.0021179385, "MEAN_MOTION_DOT": 0.00020112, "MEAN_MOTION_DDOT": 0}, "tle": {"line1": "1 34327U 93036NZ  25339.32931922  .00020112  00000+0  21179-2 0  9990", "line2": "2 34327  73.9931 186.7264 0032428   4.6651 171.7330 14.88933837893970"}}, "geometry": {"type": "Point", "coordinates": [-0.9286250679418793, 21.77892901223019]}}, {"type": "Feature", "properties": {"norad_id": 34340, "name": "COSMOS 2251 DEB", "group": "cosmos-2251-debris", "lat": 34.72958653889177, "lon": 128.06015806516203, "alt_km": 902.4991224187461, "timestamp": "2025-12-05T20:43:02.447630+00:00", "meta": {"OBJECT_NAME": "COSMOS 2251 DEB", "OBJECT_ID": "1993-036PN", "EPOCH": "2025-12-05T01:11:40.611840", "MEAN_MOTION": 13.79532497, "ECCENTRICITY": 0.02818856, "INCLINATION": 74.0789, "RA_OF_ASC_NODE": 320.83, "ARG_OF_PERICENTER": 70.5242, "MEAN_ANOMALY": 351.6677, "EPHEMERIS_TYPE": 0, "CLASSIFICATION_TYPE": "U", "NORAD_CAT_ID": 34340, "ELEMENT_SET_NO": 999, "REV_AT_EPOCH": 84162, "BSTAR": 0.00153386, "MEAN_MOTION_DOT": 2.108e-05, "MEAN_MOTION_DDOT": 0}, "tle": {"line1": "1 34340U 93036PN  25339.04977560  .00002108  00000+0  15339-2 0  9998", "line2": "2 34340  74.0789 320.8300 0281885  70.5242 351.6677 13.79532497841625"}}, "geometry": {"type": "Point", "coordinates": [128.06015806516203, 34.72958653889177]}}, {"type": "Feature", "properties": {"norad_id": 34343, "name": "COSMOS 2251 DEB", "group": "cosmos-2251-debris", "lat": 25.967244152009567, "lon": -85.13648323508144, "alt_km": 673.0477001899017, "timestamp": "2025-12-05T20:43:02.447640+00:00", "meta": {"OBJECT_NAME": "COSMOS 2251 DEB", "OBJECT_ID": "1993-036PR", "EPOCH": "2025-12-05T07:02:59.872128", "MEAN_MOTION": 14.69230112, "ECCENTRICITY": 0.00226952, "INCLINATION": 74.0199, "RA_OF_ASC_NODE": 103.9894, "ARG_OF_PERICENTER": 21.4076, "MEAN_ANOMALY": 0.3531, "EPHEMERIS_TYPE": 0, "CLASSIFICATION_TYPE": "U", "NORAD_CAT_ID": 34343, "ELEMENT_SET_NO": 999, "REV_AT_EPOCH": 88621, "BSTAR": 0.0029895736, "MEAN_MOTION_DOT": 0.00017703, "MEAN_MOTION_DDOT": 0}, "tle": {"line1": "1 34343U 93036PR  25339.29374852  .00017703  00000+0  29896-2 0  9993", "line2": "2 34343  74.0199 103.9894 0022695  21.4076   0.3531 14.69230112886213"}}, "geometry": {"type": "Point", "coordinates": [-85.13648323508144, 25.967244152009567]}}, {"type": "Feature", "properties": {"norad_id": 34344, "name": "COSMOS 2251 DEB", "group": "cosmos-2251-debris", "lat": 52.84829513097439, "lon": -79.66498119573984, "alt_km": 944.1310176965917, "timestamp": "2025-12-05T20:43:02.447650+00:00", "meta": {"OBJECT_NAME": "COSMOS 2251 DEB", "OBJECT_ID": "1993-036PS", "EPOCH": "2025-12-02T12:47:13.899264", "MEAN_MOTION": 14.16298308, "ECCENTRICITY": 0.01551689, "INCLINATION": 73.9766, "RA_OF_ASC_NODE": 128.565, "ARG_OF_PERICENTER": 314.8879, "MEAN_ANOMALY": 114.6708, "EPHEMERIS_TYPE": 0, "CLASSIFICATION_TYPE": "U", "NORAD_CAT_ID": 34344, "ELEMENT_SET_NO": 999, "REV_AT_EPOCH": 85952, "BSTAR": 0.0017796422, "MEAN_MOTION_DOT": 3.944e-05, "MEAN_MOTION_DDOT": 0}, "tle": {"line1": "1 34344U 93036PS  25336.53279976  .00003944  00000+0  17796-2 0  9997", "line2": "2 34344  73.9766 128.5650 0155168 314.8879 114.6708 14.16298308859529"}}, "geometry": {"type": "Point", "coordinates": [-79.66498119573984, 52.84829513097439]}}, {"type": "Feature", "properties": {"norad_id": 34346, "name": "COSMOS 2251 DEB", "group": "cosmos-2251-debris", "lat": -64.27605891201034, "lon": -72.38901462399573, "alt_km": 1024.9796585925806, "timestamp": "2025-12-05T20:43:02.447660+00:00", "meta": {"OBJECT_NAME": "COSMOS 2251 DEB", "OBJECT_ID": "1993-036PU", "EPOCH": "2025-12-05T00:45:24.859008", "MEAN_MOTION": 13.99658968, "ECCENTRICITY": 0.02066842, "INCLINATION": 73.9942, "RA_OF_ASC_NODE": 325.6215, "ARG_OF_PERICENTER": 146.3886, "MEAN_ANOMALY": 273.6504, "EPHEMERIS_TYPE": 0, "CLASSIFICATION_TYPE": "U", "NORAD_CAT_ID": 34346, "ELEMENT_SET_NO": 999, "REV_AT_EPOCH": 85302, "BSTAR": 0.0014280174, "MEAN_MOTION_DOT": 2.487e-05, "MEAN_MOTION_DDOT": 0}, "tle": {"line1": "1 34346U 93036PU  25339.03153772  .00002487  00000+0  14280-2 0  9998", "line2": "2 34346  73.9942 325.6215 0206684 146.3886 273.6504 13.99658968853021"}}, "geometry": {"type": "Point", "coordinates": [-72.38901462399573, -64.27605891201034]}}, {"type": "Feature", "properties": {"norad_id": 34383, "name": "COSMOS 2251 DEB", "group": "cosmos-2251-debris", "lat": -42.82000794294923, "lon": -63.523356487572705, "alt_km": 548.0999844885691, "timestamp": "2025-12-05T20:43:02.447670+00:00", "meta": {"OBJECT_NAME": "COSMOS 2251 DEB", "OBJECT_ID": "1993-036PY", "EPOCH": "2025-12-05T06:52:26.154048", "MEAN_MOTION": 15.07917905, "ECCENTRICITY": 0.00028343, "INCLINATION": 74.0212, "RA_OF_ASC_NODE": 313.0623, "ARG_OF_PERICENTER": 32.6224, "MEAN_ANOMALY": 32.5363, "EPHEMERIS_TYPE": 0, "CLASSIFICATION_TYPE": "U", "NORAD_CAT_ID": 34383, "ELEMENT_SET_NO": 999, "REV_AT_EPOCH": 89001, "BSTAR": 0.005457705, "MEAN_MOTION_DOT": 0.00084783, "MEAN_MOTION_DDOT": 0}, "tle": {"line1": "1 34383U 93036PY  25339.28641382  .00084783  00000+0  54577-2 0  9997", "line2": "2 34383  74.0212 313.0623 0002834  32.6224  32.5363 15.07917905890017"}}, "geometry": {"type": "Point", "coordinates": [-63.523356487572705, -42.82000794294923]}}, {"type": "Feature", "properties": {"norad_id": 34387, "name": "COSMOS 2251 DEB", "group": "cosmos-2251-debris", "lat": 49.20191471326137, "lon": -115.95964344454784, "alt_km": 740.6688151482413, "timestamp": "2025-12-05T20:43:02.447739+00:00", "meta": {"OBJECT_NAME": "COSMOS 2251 DEB", "OBJECT_ID": "1993-036QC", "EPOCH": "2025-12-04T03:36:01.498176", "MEAN_MOTION": 14.43791809, "ECCENTRICITY": 0.00385756, "INCLINATION": 74.0402, "RA_OF_ASC_NODE": 227.8601, "ARG_OF_PERICENTER": 326.4317, "MEAN_ANOMALY": 184.0811, "EPHEMERIS_TYPE": 0, "CLASSIFICATION_TYPE": "U", "NORAD_CAT_ID": 34387, "ELEMENT_SET_NO": 999, "REV_AT_EPOCH": 88057, "BSTAR": 0.00054181863, "MEAN_MOTION_DOT": 1.834e-05, "MEAN_MOTION_DDOT": 0}, "tle": {"line1": "1 34387U 93036QC  25338.15001734  .00001834  00000+0  54182-3 0  9996", "line2": "2 34387  74.0402 227.8601 0038575 326.4317 184.0811 14.43791809880571"}}, "geometry": {"type": "Point", "coordinates": [-115.95964344454784, 49.20191471326137]}}, {"type": "Feature", "properties": {"norad_id": 34388, "name": "COSMOS 2251 DEB", "group": "cosmos-2251-debris", "lat": -69.72048105519453, "lon": 106.76016069315344, "alt_km": 725.7793638315534, "timestamp": "2025-12-05T20:43:02.447753+00:00", "meta": {"OBJECT_NAME": "COSMOS 2251 DEB", "OBJECT_ID": "1993-036QD", "EPOCH": "2025-12-05T03:39:35.441856", "MEAN_MOTION": 14.49303648, "ECCENTRICITY": 0.00142828, "INCLINATION": 74.0399, "RA_OF_ASC_NODE": 237.3333, "ARG_OF_PERICENTER": 285.8947, "MEAN_ANOMALY": 224.7603, "EPHEMERIS_TYPE": 0, "CLASSIFICATION_TYPE": "U", "NORAD_CAT_ID": 34388, "ELEMENT_SET_NO": 999, "REV_AT_EPOCH": 88045, "BSTAR": 0.0016672343, "MEAN_MOTION_DOT": 6.35e-05, "MEAN_MOTION_DDOT": 0}, "tle": {"line1": "1 34388U 93036QD  25339.15249354  .00006350  00000+0  16672-2 0  9999", "line2": "2 34388  74.0399 237.3333 0014282 285.8947 224.7603 14.49303648880455"}}, "geometry": {"type": "Point", "coordinates": [106.76016069315344, -69.72048105519453]}}, {"type": "Feature", "properties": {"norad_id": 34389, "name": "COSMOS 2251 DEB", "group": "cosmos-2251-debris", "lat": 61.793101177805625, "lon": 50.26975779055143, "alt_km": 749.787210272706, "timestamp": "2025-12-05T20:43:02.447763+00:00", "meta": {"OBJECT_NAME": "COSMOS 2251 DEB", "OBJECT_ID": "1993-036QE", "EPOCH": "2025-12-05T05:54:07.574400", "MEAN_MOTION": 14.41501119, "ECCENTRICITY": 0.00285658, "INCLINATION": 74.0197, "RA_OF_ASC_NODE": 263.7087, "ARG_OF_PERICENTER": 17.2346, "MEAN_ANOMALY": 133.8095, "EPHEMERIS_TYPE": 0, "CLASSIFICATION_TYPE": "U", "NORAD_CAT_ID": 34389, "ELEMENT_SET_NO": 999, "REV_AT_EPOCH": 87904, "BSTAR": 0.00086710356, "MEAN_MOTION_DOT": 2.804e-05, "MEAN_MOTION_DDOT": 0}, "tle": {"line1": "1 34389U 93036QE  25339.24592100  .00002804  00000+0  86710-3 0  9991", "line2": "2 34389  74.0197 263.7087 0028565  17.2346 133.8095 14.41501119879043"}}, "geometry": {"type": "Point", "coordinates": [50.26975779055143, 61.793101177805625]}}, {"type": "Feature", "properties": {"norad_id": 34396, "name": "COSMOS 2251 DEB", "group": "cosmos-2251-debris", "lat": -49.6113675667856, "lon": 117.7870317722882, "alt_km": 657.5419853135863, "timestamp": "2025-12-05T20:43:02.447773+00:00", "meta": {"OBJECT_NAME": "COSMOS 2251 DEB", "OBJECT_ID": "1993-036QM", "EPOCH": "2025-12-04T12:39:41.449248", "MEAN_MOTION": 14.7405114, "ECCENTRICITY": 0.0007299, "INCLINATION": 74.0277, "RA_OF_ASC_NODE": 140.0678, "ARG_OF_PERICENTER": 182.7859, "MEAN_ANOMALY": 239.7557, "EPHEMERIS_TYPE": 0, "CLASSIFICATION_TYPE": "U", "NORAD_CAT_ID": 34396, "ELEMENT_SET_NO": 999, "REV_AT_EPOCH": 88225, "BSTAR": 0.005398, "MEAN_MOTION_DOT": 0.00035702, "MEAN_MOTION_DDOT": 0}, "tle": {"line1": "1 34396U 93036QM  25338.52756307  .00035702  00000+0  53980-2 0  9995", "line2": "2 34396  74.0277 140.0678 0007299 182.7859 239.7557 14.74051140882257"}}, "geometry": {"type": "Point", "coordinates": [117.7870317722882, -49.6113675667856]}}]}